{"type": "FeatureCollection", "features": [ {"type": "Feature", "properties": {"norad_id": 40938, "name": "BEIDOU-3S IGSO-2S (C56)", "group": "gnss", "lat": 30.70938740348524, "lon": 50.54309598340803, "alt_km": 35620.44021155878, "timestamp": "2025-12-14T14:39:29.613138+00:00", "meta": {"OBJECT_NAME": "BEIDOU-3S IGSO-2S (C56)", "OBJECT_ID": "2015-053A", "EPOCH": "2025-12-13T17:20:05.936352", "MEAN_MOTION": 1.00270015, "ECCENTRICITY": 0.00607751, "INCLINATION": 49.509, "RA_OF_ASC_NODE": 260.9931, "ARG_OF_PERICENTER": 188.8137, "MEAN_ANOMALY": 348.8662, "EPHEMERIS_TYPE": 0, "CLASSIFICATION_TYPE": "U", "NORAD_CAT_ID": 40938, "ELEMENT_SET_NO": 999, "REV_AT_EPOCH": 3749, "BSTAR": 0, "MEAN_MOTION_DOT": -1.56e-06, "MEAN_MOTION_DDOT": 0}, "tle": {"line1": "1 40938U 15053A   25347.72229093 -.00000156  00000+0  00000+0 0  9994", "line2": "2 40938  49.5090 260.9931 0060775 188.8137 348.8662  1.00270015 37490"}}, "geometry": {"type": "Point", "coordinates": [50.54309598340803, 30.70938740348524]}}, {"type": "Feature", "properties": {"norad_id": 41019, "name": "GPS BIIF-11 (PRN 10)", "group": "gnss", "lat": -31.898839299710872, "lon": -118.05703370733596, "alt_km": 19896.151218272058, "timestamp": "2025-12-14T14:39:29.613154+00:00", "meta": {"OBJECT_NAME": "GPS BIIF-11 (PRN 10)", "OBJECT_ID": "2015-062A", "EPOCH": "2025-12-12T19:26:17.014560", "MEAN_MOTION": 2.00567164, "ECCENTRICITY": 0.01108438, "INCLINATION": 56.8322, "RA_OF_ASC_NODE": 37.9995, "ARG_OF_PERICENTER": 229.9503, "MEAN_ANOMALY": 129.1214, "EPHEMERIS_TYPE": 0, "CLASSIFICATION_TYPE": "U", "NORAD_CAT_ID": 41019, "ELEMENT_SET_NO": 999, "REV_AT_EPOCH": 7409, "BSTAR": 0, "MEAN_MOTION_DOT": -9.6e-07, "MEAN_MOTION_DDOT": 0}, "tle": {"line1": "1 41019U 15062A   25346.80991915 -.00000096  00000+0  00000+0 0  9995", "line2": "2 41019  56.8322  37.9995 0110843 229.9503 129.1214  2.00567164 74093"}}, "geometry": {"type": "Point", "coordinates": [-118.05703370733596, -31.898839299710872]}}, {"type": "Feature", "properties": {"norad_id": 41028, "name": "GSAT-15 (GAGAN/PRN 139)", "group": "gnss", "lat": 0.04606814058888035, "lon": 36.897761005449624, "alt_km": 35797.76428725981, "timestamp": "2025-12-14T14:39:29.613166+00:00", "meta": {"OBJECT_NAME": "GSAT-15 (GAGAN/PRN 139)", "OBJECT_ID": "2015-065A", "EPOCH": "2025-12-13T22:27:16.320384", "MEAN_MOTION": 1.00271702, "ECCENTRICITY": 0.00028137, "INCLINATION": 0.0427, "RA_OF_ASC_NODE": 266.5173, "ARG_OF_PERICENTER": 322.9229, "MEAN_ANOMALY": 283.7397, "EPHEMERIS_TYPE": 0, "CLASSIFICATION_TYPE": "U", "NORAD_CAT_ID": 41028, "ELEMENT_SET_NO": 999, "REV_AT_EPOCH": 3694, "BSTAR": 0, "MEAN_MOTION_DOT": -2.41e-06, "MEAN_MOTION_DDOT": 0}, "tle": {"line1": "1 41028U 15065A   25347.93560556 -.00000241  00000+0  00000+0 0  9998", "line2": "2 41028   0.0427 266.5173 0002813 322.9229 283.7397  1.00271702 36944"}}, "geometry": {"type": "Point", "coordinates": [36.897761005449624, 0.04606814058888035]}}, {"type": "Feature", "properties": {"norad_id": 41174, "name": "GSAT0209 (GALILEO 12)", "group": "gnss", "lat": -26.194167946308735, "lon": -54.09142525806051, "alt_km": 23230.96758740753, "timestamp": "2025-12-14T14:39:29.613178+00:00", "meta": {"OBJECT_NAME": "GSAT0209 (GALILEO 12)", "OBJECT_ID": "2015-079A", "EPOCH": "2025-12-10T17:53:22.611840", "MEAN_MOTION": 1.70474458, "ECCENTRICITY": 0.00024095, "INCLINATION": 55.7117, "RA_OF_ASC_NODE": 106.4357, "ARG_OF_PERICENTER": 351.4479, "MEAN_ANOMALY": 8.5179, "EPHEMERIS_TYPE": 0, "CLASSIFICATION_TYPE": "U", "NORAD_CAT_ID": 41174, "ELEMENT_SET_NO": 999, "REV_AT_EPOCH": 6156, "BSTAR": 0, "MEAN_MOTION_DOT": 1.1e-07, "MEAN_MOTION_DDOT": 0}, "tle": {"line1": "1 41174U 15079A   25344.74540060  .00000011  00000+0  00000+0 0  9993", "line2": "2 41174  55.7117 106.4357 0002409 351.4479   8.5179  1.70474458 61567"}}, "geometry": {"type": "Point", "coordinates": [-54.09142525806051, -26.194167946308735]}}, {"type": "Feature", "properties": {"norad_id": 41175, "name": "GSAT0208 (GALILEO 11)", "group": "gnss", "lat": 53.67905190079759, "lon": 174.32806031759495, "alt_km": 23214.84916011295, "timestamp": "2025-12-14T14:39:29.613191+00:00", "meta": {"OBJECT_NAME": "GSAT0208 (GALILEO 11)", "OBJECT_ID": "2015-079B", "EPOCH": "2025-12-12T17:24:26.771040", "MEAN_MOTION": 1.70474307, "ECCENTRICITY": 0.00018806, "INCLINATION": 55.7111, "RA_OF_ASC_NODE": 106.3784, "ARG_OF_PERICENTER": 358.3144, "MEAN_ANOMALY": 1.6545, "EPHEMERIS_TYPE": 0, "CLASSIFICATION_TYPE": "U", "NORAD_CAT_ID": 41175, "ELEMENT_SET_NO": 999, "REV_AT_EPOCH": 6201, "BSTAR": 0, "MEAN_MOTION_DOT": 4e-08, "MEAN_MOTION_DDOT": 0}, "tle": {"line1": "1 41175U 15079B   25346.72530985  .00000004  00000+0  00000+0 0  9991", "line2": "2 41175  55.7111 106.3784 0001880 358.3144   1.6545  1.70474307 62017"}}, "geometry": {"type": "Point", "coordinates": [174.32806031759495, 53.67905190079759]}}, {"type": "Feature", "properties": {"norad_id": 41241, "name": "IRNSS-1E", "group": "gnss", "lat": -3.8774269356770557, "lon": 56.39973987424692, "alt_km": 35875.659039712555, "timestamp": "2025-12-14T14:39:29.613203+00:00", "meta": {"OBJECT_NAME": "IRNSS-1E", "OBJECT_ID": "2016-003A", "EPOCH": "2025-12-12T20:06:57.569184", "MEAN_MOTION": 1.00273817, "ECCENTRICITY": 0.00218004, "INCLINATION": 32.8255, "RA_OF_ASC_NODE": 62.4521, "ARG_OF_PERICENTER": 187.6915, "MEAN_ANOMALY": 245.1684, "EPHEMERIS_TYPE": 0, "CLASSIFICATION_TYPE": "U", "NORAD_CAT_ID": 41241, "ELEMENT_SET_NO": 999, "REV_AT_EPOCH": 3621, "BSTAR": 0, "MEAN_MOTION_DOT": -3.05e-06, "MEAN_MOTION_DDOT": 0}, "tle": {"line1": "1 41241U 16003A   25346.83816631 -.00000305  00000+0  00000+0 0  9995", "line2": "2 41241  32.8255  62.4521 0021800 187.6915 245.1684  1.00273817 36218"}}, "geometry": {"type": "Point", "coordinates": [56.39973987424692, -3.8774269356770557]}}, {"type": "Feature", "properties": {"norad_id": 41328, "name": "GPS BIIF-12 (PRN 32)", "group": "gnss", "lat": 17.358016511324408, "lon": -95.66871340019247, "alt_km": 20156.119073111542, "timestamp": "2025-12-14T14:39:29.613215+00:00", "meta": {"OBJECT_NAME": "GPS BIIF-12 (PRN 32)", "OBJECT_ID": "2016-007A", "EPOCH": "2025-12-13T09:23:04.524576", "MEAN_MOTION": 2.00560713, "ECCENTRICITY": 0.00921862, "INCLINATION": 55.4066, "RA_OF_ASC_NODE": 96.8311, "ARG_OF_PERICENTER": 243.5856, "MEAN_ANOMALY": 115.4531, "EPHEMERIS_TYPE": 0, "CLASSIFICATION_TYPE": "U", "NORAD_CAT_ID": 41328, "ELEMENT_SET_NO": 999, "REV_AT_EPOCH": 7211, "BSTAR": 0, "MEAN_MOTION_DOT": -1.9e-07, "MEAN_MOTION_DDOT": 0}, "tle": {"line1": "1 41328U 16007A   25347.39102459 -.00000019  00000+0  00000+0 0  9995", "line2": "2 41328  55.4066  96.8311 0092186 243.5856 115.4531  2.00560713 72118"}}, "geometry": {"type": "Point", "coordinates": [-95.66871340019247, 17.358016511324408]}}, {"type": "Feature", "properties": {"norad_id": 41330, "name": "COSMOS 2514 (751)", "group": "gnss", "lat": 14.327895723397408, "lon": 132.52677942112015, "alt_km": 19111.28765848046, "timestamp": "2025-12-14T14:39:29.613226+00:00", "meta": {"OBJECT_NAME": "COSMOS 2514 (751)", "OBJECT_ID": "2016-008A", "EPOCH": "2025-12-13T22:15:20.195712", "MEAN_MOTION": 2.13102653, "ECCENTRICITY": 0.00120546, "INCLINATION": 65.1331, "RA_OF_ASC_NODE": 319.3632, "ARG_OF_PERICENTER": 220.0811, "MEAN_ANOMALY": 139.8277, "EPHEMERIS_TYPE": 0, "CLASSIFICATION_TYPE": "U", "NORAD_CAT_ID": 41330, "ELEMENT_SET_NO": 999, "REV_AT_EPOCH": 7667, "BSTAR": 0, "MEAN_MOTION_DOT": -6.4e-07, "MEAN_MOTION_DDOT": 0}, "tle": {"line1": "1 41330U 16008A   25347.92731708 -.00000064  00000+0  00000+0 0  9993", "line2": "2 41330  65.1331 319.3632 0012054 220.0811 139.8277  2.13102653 76671"}}, "geometry": {"type": "Point", "coordinates": [132.52677942112015, 14.327895723397408]}}, {"type": "Feature", "properties": {"norad_id": 41384, "name": "IRNSS-1F", "group": "gnss", "lat": -3.9899018470718928, "lon": -24.11992690826376, "alt_km": 35729.96798918319, "timestamp": "2025-12-14T14:39:29.613238+00:00", "meta": {"OBJECT_NAME": "IRNSS-1F", "OBJECT_ID": "2016-015A", "EPOCH": "2025-12-13T22:09:47.992896", "MEAN_MOTION": 1.00273157, "ECCENTRICITY": 0.00225767, "INCLINATION": 4.8836, "RA_OF_ASC_NODE": 101.2709, "ARG_OF_PERICENTER": 180.8181, "MEAN_ANOMALY": 165.5757, "EPHEMERIS_TYPE": 0, "CLASSIFICATION_TYPE": "U", "NORAD_CAT_ID": 41384, "ELEMENT_SET_NO": 999, "REV_AT_EPOCH": 3580, "BSTAR": 0, "MEAN_MOTION_DOT": 1.74e-06, "MEAN_MOTION_DDOT": 0}, "tle": {"line1": "1 41384U 16015A   25347.92347214  .00000174  00000+0  00000+0 0  9996", "line2": "2 41384   4.8836 101.2709 0022576 180.8181 165.5757  1.00273157 35808"}}, "geometry": {"type": "Point", "coordinates": [-24.11992690826376, -3.9899018470718928]}}, {"type": "Feature", "properties": {"norad_id": 41434, "name": "BEIDOU-2 IGSO-6 (C13)", "group": "gnss", "lat": -2.527797024198377, "lon": 38.44941762397943, "alt_km": 35935.780895512784, "timestamp": "2025-12-14T14:39:29.613252+00:00", "meta": {"OBJECT_NAME": "BEIDOU-2 IGSO-6 (C13)", "OBJECT_ID": "2016-021A", "EPOCH": "2025-12-11T15:29:12.615360", "MEAN_MOTION": 1.00293077, "ECCENTRICITY": 0.00608616, "INCLINATION": 59.9644, "RA_OF_ASC_NODE": 39.9082, "ARG_OF_PERICENTER": 229.9753, "MEAN_ANOMALY": 135.9177, "EPHEMERIS_TYPE": 0, "CLASSIFICATION_TYPE": "U", "NORAD_CAT_ID": 41434, "ELEMENT_SET_NO": 999, "REV_AT_EPOCH": 3560, "BSTAR": 0, "MEAN_MOTION_DOT": -1.62e-06, "MEAN_MOTION_DDOT": 0}, "tle": {"line1": "1 41434U 16021A   25345.64528490 -.00000162  00000+0  00000+0 0  9991", "line2": "2 41434  59.9644  39.9082 0060861 229.9753 135.9177  1.00293077 35600"}}, "geometry": {"type": "Point", "coordinates": [38.44941762397943, -2.527797024198377]}}]}